{
    "links": {
        "self": "http://www.neowsapp.com/rest/v1/neo/3612169?api_key=iIulBulltgU6a56xZRHN4H3l9WmuAYTsLGpBGhQ2"
    },
    "id": "3612169",
    "neo_reference_id": "3612169",
    "name": "(2012 UV9)",
    "designation": "2012 UV9",
    "nasa_jpl_url": "http://ssd.jpl.nasa.gov/sbdb.cgi?sstr=3612169",
    "absolute_magnitude_h": 23.0,
    "estimated_diameter": {
        "kilometers": {
            "estimated_diameter_min": 0.0667659413,
            "estimated_diameter_max": 0.1492931834
        },
        "meters": {
            "estimated_diameter_min": 66.7659413495,
            "estimated_diameter_max": 149.2931834393
        },
        "miles": {
            "estimated_diameter_min": 0.0414864197,
            "estimated_diameter_max": 0.0927664547
        },
        "feet": {
            "estimated_diameter_min": 219.0483710172,
            "estimated_diameter_max": 489.807047955
        }
    },
    "is_potentially_hazardous_asteroid": false,
    "close_approach_data": [
        {
            "close_approach_date": "2012-10-07",
            "close_approach_date_full": "2012-Oct-07 10:01",
            "epoch_date_close_approach": 1349604060000,
            "relative_velocity": {
                "kilometers_per_second": "9.6733130936",
                "kilometers_per_hour": "34823.9271369902",
                "miles_per_hour": "21638.2340590926"
            },
            "miss_distance": {
                "astronomical": "0.032798052",
                "lunar": "12.758442228",
                "kilometers": "4906518.71934924",
                "miles": "3048769.358889912"
            },
            "orbiting_body": "Earth"
        }
    ],
    "orbital_data": {
        "orbit_id": "11",
        "orbit_determination_date": "2017-04-06 08:48:27",
        "first_observation_date": "2012-10-16",
        "last_observation_date": "2012-11-07",
        "data_arc_in_days": 22,
        "observations_used": 41,
        "orbit_uncertainty": "7",
        "minimum_orbit_intersection": ".0282761",
        "jupiter_tisserand_invariant": "3.795",
        "epoch_osculation": "2459000.5",
        "eccentricity": ".4972941717084927",
        "semi_major_axis": "1.890305239226045",
        "inclination": "4.965290728976721",
        "ascending_node_longitude": "173.1734144169839",
        "orbital_period": "949.2843780244308",
        "perihelion_distance": ".9502674610089048",
        "perihelion_argument": "169.6490942739931",
        "aphelion_distance": "2.830343017443185",
        "perihelion_time": "2459030.971558050181",
        "mean_anomaly": "348.4441784232303",
        "mean_motion": ".3792330394704284",
        "equinox": "J2000",
        "orbit_class": {
            "orbit_class_type": "APO",
            "orbit_class_description": "Near-Earth asteroid orbits which cross the Earth’s orbit similar to that of 1862 Apollo",
            "orbit_class_range": "a (semi-major axis) > 1.0 AU; q (perihelion) < 1.017 AU"
        }
    },
    "is_sentry_object": false
}